[{"OBJECT_NAME":"JILIN-1 06","OBJECT_ID":"2017-074C","EPOCH":"2026-03-09T22:46:57.173376","MEAN_MOTION":15.32444387,"ECCENTRICITY":0.00061285,"INCLINATION":97.4715,"RA_OF_ASC_NODE":171.0354,"ARG_OF_PERICENTER":223.0031,"MEAN_ANOMALY":137.0732,"EPHEMERIS_TYPE":0,"CLASSIFICATION_TYPE":"U","NORAD_CAT_ID":43024,"ELEMENT_SET_NO":999,"REV_AT_EPOCH":45863,"BSTAR":0.00028431628,"MEAN_MOTION_DOT":8.833e-5,"MEAN_MOTION_DDOT":0},{"OBJECT_NAME":"STARLINK-33746","OBJECT_ID":"2025-069P","EPOCH":"2026-03-09T11:42:13.804128","MEAN_MOTION":15.30176492,"ECCENTRICITY":0.00013479,"INCLINATION":53.1577,"RA_OF_ASC_NODE":143.4231,"ARG_OF_PERICENTER":64.1172,"MEAN_ANOMALY":295.9968,"EPHEMERIS_TYPE":0,"CLASSIFICATION_TYPE":"U","NORAD_CAT_ID":63446,"ELEMENT_SET_NO":999,"REV_AT_EPOCH":5332,"BSTAR":0.0012136882,"MEAN_MOTION_DOT":0.00035734,"MEAN_MOTION_DDOT":0}]
